{
    "links": {
        "self": "http://www.neowsapp.com/rest/v1/neo/3180146?api_key=iIulBulltgU6a56xZRHN4H3l9WmuAYTsLGpBGhQ2"
    },
    "id": "3180146",
    "neo_reference_id": "3180146",
    "name": "(2004 HA1)",
    "designation": "2004 HA1",
    "nasa_jpl_url": "http://ssd.jpl.nasa.gov/sbdb.cgi?sstr=3180146",
    "absolute_magnitude_h": 21.7,
    "estimated_diameter": {
        "kilometers": {
            "estimated_diameter_min": 0.1214940408,
            "estimated_diameter_max": 0.2716689341
        },
        "meters": {
            "estimated_diameter_min": 121.4940407996,
            "estimated_diameter_max": 271.6689340891
        },
        "miles": {
            "estimated_diameter_min": 0.0754928736,
            "estimated_diameter_max": 0.1688071972
        },
        "feet": {
            "estimated_diameter_min": 398.6025088171,
            "estimated_diameter_max": 891.3023057169
        }
    },
    "is_potentially_hazardous_asteroid": false,
    "close_approach_data": [
        {
            "close_approach_date": "2004-05-02",
            "close_approach_date_full": "2004-May-02 23:58",
            "epoch_date_close_approach": 1083542280000,
            "relative_velocity": {
                "kilometers_per_second": "19.0710047456",
                "kilometers_per_hour": "68655.6170840736",
                "miles_per_hour": "42659.930515379"
            },
            "miss_distance": {
                "astronomical": "0.0971544564",
                "lunar": "37.7930835396",
                "kilometers": "14534099.738447868",
                "miles": "9031070.8011538584"
            },
            "orbiting_body": "Earth"
        }
    ],
    "orbital_data": {
        "orbit_id": "12",
        "orbit_determination_date": "2017-04-06 09:12:54",
        "first_observation_date": "2004-04-19",
        "last_observation_date": "2004-04-25",
        "data_arc_in_days": 6,
        "observations_used": 65,
        "orbit_uncertainty": "9",
        "minimum_orbit_intersection": ".0647304",
        "jupiter_tisserand_invariant": "2.867",
        "epoch_osculation": "2453117.5",
        "eccentricity": ".7198773704078343",
        "semi_major_axis": "2.70866302151078",
        "inclination": "19.11759411836241",
        "ascending_node_longitude": "29.21890268777825",
        "orbital_period": "1628.286773386022",
        "perihelion_distance": ".7587578082646605",
        "perihelion_argument": "258.8334328879454",
        "aphelion_distance": "4.658568234756899",
        "perihelion_time": "2453172.391481119826",
        "mean_anomaly": "347.8639724119084",
        "mean_motion": ".2210912757409311",
        "equinox": "J2000",
        "orbit_class": {
            "orbit_class_type": "APO",
            "orbit_class_description": "Near-Earth asteroid orbits which cross the Earth’s orbit similar to that of 1862 Apollo",
            "orbit_class_range": "a (semi-major axis) > 1.0 AU; q (perihelion) < 1.017 AU"
        }
    },
    "is_sentry_object": false
}